#dP2021 10 22  0  0  0.00000000      96 __u+U ITR00 FIT  IAC
## 2180 432000.00000000   900.00000000 59509 0.0000000000000
+  125   C01C02C03C04C06C07C08C09C10C11C12C13C14C16C19C20C21
+        C22C23C24C25C26C27C28C29C30C32C33C34C35C36C37C38C39
+        C40C41C42C43C44C45C46C59E01E02E03E04E05E07E08E09E11
+        E12E13E14E15E18E19E21E24E25E26E27E30E31E33E36G01G02
+        G03G04G05G06G07G08G09G10G12G13G14G15G16G17G18G19G20
+        G21G22G23G24G25G26G27G28G29G30G31G32J01J02J03J07R01
+        R02R03R04R05R06R07R08R09R10R11R12R13R14R15R16R17R18
+        R19R20R21R22R23R24  0  0  0  0  0  0  0  0  0  0  0
++         0  0  0  0  0  0  0  0  0  0  0  0  0  0  0  0  0
++         0  0  0  0  0  0  0  0  0  0  0  0  0  0  0  0  0
++         0  0  0  0  0  0  0  0  0  0  0  0  0  0  0  0  0
++         0  0  0  0  0  0  0  0  0  0  0  0  0  0  0  0  0
++         0  0  0  0  0  0  0  0  0  0  0  0  0  0  0  0  0
++         0  0  0  0  0  0  0  0  0  0  0  0  0  0  0  0  0
++         0  0  0  0  0  0  0  0  0  0  0  0  0  0  0  0  0
++         0  0  0  0  0  0  0  0  0  0  0  0  0  0  0  0  0
%c M  cc GPS ccc cccc cccc cccc cccc ccccc ccccc ccccc ccccc
%c cc cc ccc ccc cccc cccc cccc cccc ccccc ccccc ccccc ccccc
%f  0.0000000  0.000000000  0.00000000000  0.000000000000000
%f  0.0000000  0.000000000  0.00000000000  0.000000000000000
%i    0    0    0    0      0      0      0      0         0
%i    0    0    0    0      0      0      0      0         0
/* INFORMATION & ANALYSIS CENTER (IAC)            RAPID DATA
/* S/V CLOCKS ARE ALIGNED TO GNSS TIME                      
/* G:C1WC2W R:C1PC2P E:C1XC5X C:C2IC6I J:C1CC2S             
/* PCV:IGS14_2163 OL/AL:FES2004  NONE     YN ORB:CoN CLK:CoN
*  2021 10 22 21  0  0.00000000
PC01 -34300.119053  24508.545718    235.760954   -525.488677
PC02   4286.168478  41931.017928   -246.451289    226.717343
PC03 -14808.261708  39441.326605    662.188947     32.885035
PC04 -39593.227655  14456.417441    520.490700   -285.888688
PC06  -8782.763803  23258.611710 -34082.167596    374.663271
PC07 -17184.394817  37184.896680   9711.540629   -244.680506
PC08    -76.530410  36360.055706  21478.056027   -839.413248
PC09    481.251777  24912.387789 -33646.657124   -205.646123
PC10  -9874.342445  37277.644747  16754.139755      8.273339
PC11  16458.430361  15546.583413  16414.040002    646.418694
PC12  -3209.050186  15020.425355  23338.463073    735.130037
PC13   4528.295359  39074.286719  15670.549602    450.791662
PC14   5899.200173  16047.166715 -22032.088899    572.237826
PC16 -13218.077558  21370.895122 -33755.430695   -753.041837
PC19 -14071.548710  -7959.376794  22759.646483    945.212299
PC20   1662.607268 -20633.262966  18730.525762   -791.993510
PC21 -17333.244896  21618.502662  -3226.053878   -932.348226
PC22 -22239.791492   9762.884001  13713.043254   -960.262376
PC23  16575.178838   -620.792553  22451.714910   -972.837926
PC24   5038.649607  27191.287438  -3860.966926   -972.076130
PC25  16174.871661  17995.682528  13919.206847   -836.042194
PC26  -6888.703466  20359.143384 -17825.432043    832.427594
PC27  13464.608244 -11814.253592 -21412.077429    617.422294
PC28  26362.986355    213.180150  -9162.381128    -11.732622
PC29 -24140.328733 -11171.141613  -8435.632050    464.090618
PC30  -7181.690605 -16606.734975 -21252.393333    484.214527
PC32  17207.183560 -21744.040134   3171.115745   -970.030311
PC33  14081.803444   7963.659377 -22743.236555   -969.077295
PC34   8077.899848  16633.019434  20888.581261   -553.876623
PC35 -26508.907778    433.831478   8749.695246    -34.029853
PC36 -15599.033013 -18717.579970 -13569.592104   -784.871501
PC37   8044.043474 -19350.324079  18437.435908   -878.403216
PC38  -6964.586994  31905.584084  26773.328510    184.132304
PC39 -18771.727675  20073.247846 -32029.375940     33.730318
PC40 -24156.977932  33607.715797   7609.455690    210.884760
PC41  22181.184063  -9527.167699 -13952.642615   -920.758493
PC42  -2435.877515  21014.558045 -18158.379776   -955.827398
PC43  23741.167053  11608.543372   8933.950006   -965.639467
PC44 -13328.679230  12268.645185  21227.286238    440.893138
PC45 -16397.970774    858.854022 -22553.383435    580.892868
PC46  -5905.318960 -27116.657074   2719.260026     27.510603
PC59 -32308.531808  27099.834531   -670.942358      0.164537
PE01  -3307.934203 -26431.810064 -12891.094080   -501.111211
PE02   3416.483506  26370.389135  13028.502937    255.253236
PE03   7067.917529  15638.698890 -24126.598650   -487.951968
PE04 -24432.049964  -4020.657537  16218.138080   -883.458364
PE05 -14776.396720  18278.955756 -17996.557874   -239.733539
PE07  27741.391148 -10235.639423   1456.685266   -598.853393
PE08  24652.298154   3544.757091 -16010.959691   5917.311806
PE09 -27628.868491  10470.524182  -1667.723018   5489.247706
PE11 -19642.237981   1848.168436  22060.693533   5219.358549
PE12 -24329.006764 -15335.988006   7018.730337   4947.500392
PE13  19912.927823  -1359.502705 -21856.457260    422.885578
PE14   7809.232403  14217.577886  18051.389849  -1614.101332
PE15  24352.872673  15315.576560  -6977.651025    785.249505
PE18  -1527.623082 -20305.190787 -24622.588722  -1773.166323
PE19  -4292.430384 -16424.115698  24245.925870    408.801941
PE21   9067.066833 -27779.878058   4712.049624   -695.178731
PE24 -17137.776585  11996.826030 -20954.797123  -1185.460652
PE25  -9185.571278  27709.530970  -4904.942946   -550.955407
PE26   2965.996893 -17873.201740 -23400.382795   1199.154714
PE27  16892.413566 -13158.124554  20444.264485   -148.149962
PE30  14260.393261  10484.489077  23727.457924   2518.989816
PE31 -14715.994221  -9064.718562 -24014.300156   -487.108708
PE33 -14433.583467 -22907.369379 -11952.076576   -463.434861
PE36  -3777.159474  17169.586069  23818.392740   -279.679098
PG01 -20101.919564 -10991.843569  13448.289433    531.868894
PG02  13190.878847  21846.091857   7857.199379   -638.686500
PG03 -15194.071516  -1650.017375  21607.702165   -334.126073
PG04 -25824.403755  -1168.881639   6261.083451   -203.287620
PG05   8867.634197  16115.063365 -19269.744163    -58.545049
PG06    885.140804  19785.633968  17730.836885    100.449733
PG07 -15511.464327   4368.236730 -20820.689281    266.695654
PG08 -19937.648395  -7659.241797 -16000.366624    -41.107155
PG09 -24860.128502   8020.846970  -4959.311205   -361.892472
PG10  11620.237704 -23383.694014  -3794.728668   -229.615212
PG12  14450.633899   4014.371366  21660.981206   -115.381912
PG13  12692.565096  13095.567206 -19512.253988    203.466901
PG14 -12764.446150  22953.465783  -3749.286385    -24.106650
PG15  21031.902821   6114.229277 -15646.564753   -112.019561
PG16  -4234.173768 -19183.976318 -17901.448213   -411.462287
PG17 -16364.052905  12952.726487  16875.404799    522.945677
PG18  14134.665517  -6035.055646 -21679.740509    306.612679
PG19  -7560.065290  14339.391307  20737.814447     69.340661
PG20   2808.381486  24253.336080 -10796.437041    518.506172
PG21 -21081.080872 -15588.558135   6501.605411    148.631485
PG22 -13160.179557 -10257.573764  20871.854279   -482.904085
PG23  15931.791284 -15796.470134 -14176.389683     41.918919
PG24  21421.605734  13237.932621   8795.399285    257.573355
PG25  16885.099632  -7885.018424  18556.575969    228.666197
PG26   3554.909314 -25440.530142  -6184.273846    147.645949
PG27 -10150.055980 -12900.887715 -21138.400158   -209.666978
PG28  -9061.394309  24821.988439   4162.727420    477.487853
PG29  26309.992630  -3454.673981  -1821.641775   -430.015500
PG30  -7287.080083  15128.020417 -20461.316584   -484.763895
PG31  -2056.087560 -20927.555117  15830.135370   -146.307391
PG32  12099.850945 -15063.234680  18260.739418    -13.095825
PJ01 -36286.683730  20932.589311   -160.833828    162.857697
PJ02 -21370.957979  31591.380205 -13525.333385     -3.805225
PJ03 -28834.646533  22301.251672  26255.925002     -4.388907
PJ07 -25380.082772  33677.125907    -53.972723     -0.135655
PR01  20389.837694  -7343.033440 -13468.150901     87.059637
PR02  18085.937082 -16727.537790   6517.838165    497.579035
PR03   4413.932805 -15038.421204  20140.899748     45.149691
PR04 -11311.383311  -4781.613655  22378.212037    110.645989
PR05 -20946.716937   7984.211082  12200.839635     81.140602
PR06 -17044.873254  17500.582192  -7405.320583    -11.274610
PR07  -3917.882648  14802.687259 -20386.564164    -40.481497
PR08  11403.053658   4802.668875 -22254.285457    -61.607529
PR09  -5683.504789  18912.007635 -16083.208262     19.622549
PR10   2453.358875  25398.858556  -1241.027963    -76.284836
PR11   9630.597324  17629.749116  15725.975248     49.787273
PR12  10938.125492  -1119.390085  23047.198699    272.239919
PR13   5901.530721 -18225.119322  16832.452895    -62.497401
PR14  -2868.656250 -25354.686820    -35.298245     70.203368
PR15  -9624.518963 -17239.968073 -16125.763345    100.686789
PR16 -10857.642517   2948.562195 -22914.146768    -23.658939
PR17  -7401.655304 -13465.251368 -20334.521201    468.476499
PR18 -20649.587261 -13096.640980  -7319.698702     94.665310
PR19 -22948.865398  -6983.718032   8656.536471   -164.137778
PR20 -11142.821062   5517.811677  22287.286155    -58.021775
PR21   8749.292481  13714.477511  19663.139945   -248.784186
PR22  20982.153837  12929.121043   6392.750842   -140.529437
PR23  20935.926735   2694.839937 -14332.151035    -17.441338
PR24  10571.015801  -6544.898887 -22257.966528     63.813875
EOF
